{"type": "FeatureCollection", "features": [ {"type": "Feature", "properties": {"norad_id": 60989, "name": "SENTINEL-2C", "group": "resource", "lat": 47.032185569700765, "lon": -106.61414323609749, "alt_km": 784.1094747482148, "timestamp": "2025-12-17T15:50:09.434863+00:00", "meta": {"OBJECT_NAME": "SENTINEL-2C", "OBJECT_ID": "2024-157A", "EPOCH": "2025-12-17T05:09:01.437408", "MEAN_MOTION": 14.30819349, "ECCENTRICITY": 0.00012185, "INCLINATION": 98.5679, "RA_OF_ASC_NODE": 63.6327, "ARG_OF_PERICENTER": 96.8661, "MEAN_ANOMALY": 263.266, "EPHEMERIS_TYPE": 0, "CLASSIFICATION_TYPE": "U", "NORAD_CAT_ID": 60989, "ELEMENT_SET_NO": 999, "REV_AT_EPOCH": 6696, "BSTAR": 6.412238e-05, "MEAN_MOTION_DOT": 1.24e-06, "MEAN_MOTION_DDOT": 0}, "tle": {"line1": "1 60989U 24157A   25351.21459997  .00000124  00000+0  64122-4 0  9998", "line2": "2 60989  98.5679  63.6327 0001218  96.8661 263.2660 14.30819349 66967"}}, "geometry": {"type": "Point", "coordinates": [-106.61414323609749, 47.032185569700765]}}, {"type": "Feature", "properties": {"norad_id": 61735, "name": "IONOSFERA-M 1", "group": "resource", "lat": -72.94965521823796, "lon": 11.364365873586406, "alt_km": 823.719602876613, "timestamp": "2025-12-17T15:50:09.434873+00:00", "meta": {"OBJECT_NAME": "IONOSFERA-M 1", "OBJECT_ID": "2024-199A", "EPOCH": "2025-12-17T07:53:17.361888", "MEAN_MOTION": 14.22715057, "ECCENTRICITY": 7.403e-05, "INCLINATION": 98.7401, "RA_OF_ASC_NODE": 221.1417, "ARG_OF_PERICENTER": 14.8346, "MEAN_ANOMALY": 345.2854, "EPHEMERIS_TYPE": 0, "CLASSIFICATION_TYPE": "U", "NORAD_CAT_ID": 61735, "ELEMENT_SET_NO": 999, "REV_AT_EPOCH": 10184, "BSTAR": 4.5757203e-05, "MEAN_MOTION_DOT": 5.8e-07, "MEAN_MOTION_DDOT": 0}, "tle": {"line1": "1 61735U 24199A   25351.32867317  .00000058  00000+0  45757-4 0  9994", "line2": "2 61735  98.7401 221.1417 0000740  14.8346 345.2854 14.22715057101847"}}, "geometry": {"type": "Point", "coordinates": [11.364365873586406, -72.94965521823796]}}, {"type": "Feature", "properties": {"norad_id": 61736, "name": "IONOSFERA-M 2", "group": "resource", "lat": 75.14955082824673, "lon": -174.08326285171663, "alt_km": 807.8719484435414, "timestamp": "2025-12-17T15:50:09.434883+00:00", "meta": {"OBJECT_NAME": "IONOSFERA-M 2", "OBJECT_ID": "2024-199B", "EPOCH": "2025-12-17T07:01:53.940288", "MEAN_MOTION": 14.22717152, "ECCENTRICITY": 0.00017482, "INCLINATION": 98.7407, "RA_OF_ASC_NODE": 221.0187, "ARG_OF_PERICENTER": 104.4167, "MEAN_ANOMALY": 255.7205, "EPHEMERIS_TYPE": 0, "CLASSIFICATION_TYPE": "U", "NORAD_CAT_ID": 61736, "ELEMENT_SET_NO": 999, "REV_AT_EPOCH": 10496, "BSTAR": 4.0095643e-05, "MEAN_MOTION_DOT": 4.6e-07, "MEAN_MOTION_DDOT": 0}, "tle": {"line1": "1 61736U 24199B   25351.29298542  .00000046  00000+0  40096-4 0  9997", "line2": "2 61736  98.7407 221.0187 0001748 104.4167 255.7205 14.22717152104962"}}, "geometry": {"type": "Point", "coordinates": [-174.08326285171663, 75.14955082824673]}}, {"type": "Feature", "properties": {"norad_id": 63772, "name": "BIOMASS", "group": "resource", "lat": -17.1789098280345, "lon": 179.11145006919926, "alt_km": 673.968649243976, "timestamp": "2025-12-17T15:50:09.434894+00:00", "meta": {"OBJECT_NAME": "BIOMASS", "OBJECT_ID": "2025-090A", "EPOCH": "2025-12-17T01:11:14.999424", "MEAN_MOTION": 14.67537273, "ECCENTRICITY": 0.00011229, "INCLINATION": 98.07, "RA_OF_ASC_NODE": 175.9963, "ARG_OF_PERICENTER": 81.6302, "MEAN_ANOMALY": 278.503, "EPHEMERIS_TYPE": 0, "CLASSIFICATION_TYPE": "U", "NORAD_CAT_ID": 63772, "ELEMENT_SET_NO": 999, "REV_AT_EPOCH": 3397, "BSTAR": 0.00022918499, "MEAN_MOTION_DOT": 1.252e-05, "MEAN_MOTION_DDOT": 0}, "tle": {"line1": "1 63772U 25090A   25351.04947916  .00001252  00000+0  22918-3 0  9991", "line2": "2 63772  98.0700 175.9963 0001122  81.6302 278.5030 14.67537273 33979"}}, "geometry": {"type": "Point", "coordinates": [179.11145006919926, -17.1789098280345]}}, {"type": "Feature", "properties": {"norad_id": 64694, "name": "GOSAT-GW (IBUKI GW)", "group": "resource", "lat": -12.703313968663036, "lon": 105.25686014602715, "alt_km": 673.6997686728537, "timestamp": "2025-12-17T15:50:09.434904+00:00", "meta": {"OBJECT_NAME": "GOSAT-GW (IBUKI GW)", "OBJECT_ID": "2025-141A", "EPOCH": "2025-12-17T08:24:55.111968", "MEAN_MOTION": 14.67562335, "ECCENTRICITY": 0.00014359, "INCLINATION": 98.0431, "RA_OF_ASC_NODE": 286.7799, "ARG_OF_PERICENTER": 83.6812, "MEAN_ANOMALY": 276.4557, "EPHEMERIS_TYPE": 0, "CLASSIFICATION_TYPE": "U", "NORAD_CAT_ID": 64694, "ELEMENT_SET_NO": 999, "REV_AT_EPOCH": 2517, "BSTAR": 0.00015898701, "MEAN_MOTION_DOT": 8.54e-06, "MEAN_MOTION_DDOT": 0}, "tle": {"line1": "1 64694U 25141A   25351.35063787  .00000854  00000+0  15899-3 0  9998", "line2": "2 64694  98.0431 286.7799 0001435  83.6812 276.4557 14.67562335 25178"}}, "geometry": {"type": "Point", "coordinates": [105.25686014602715, -12.703313968663036]}}, {"type": "Feature", "properties": {"norad_id": 64876, "name": "IONOSFERA-M 3", "group": "resource", "lat": 77.1105030643154, "lon": 174.66082944422547, "alt_km": 812.1842286679866, "timestamp": "2025-12-17T15:50:09.434915+00:00", "meta": {"OBJECT_NAME": "IONOSFERA-M 3", "OBJECT_ID": "2025-155A", "EPOCH": "2025-12-17T06:55:19.972704", "MEAN_MOTION": 14.21442188, "ECCENTRICITY": 0.00021207, "INCLINATION": 98.5789, "RA_OF_ASC_NODE": 313.0259, "ARG_OF_PERICENTER": 52.6561, "MEAN_ANOMALY": 307.481, "EPHEMERIS_TYPE": 0, "CLASSIFICATION_TYPE": "U", "NORAD_CAT_ID": 64876, "ELEMENT_SET_NO": 999, "REV_AT_EPOCH": 2056, "BSTAR": 4.8237017e-05, "MEAN_MOTION_DOT": 6.3e-07, "MEAN_MOTION_DDOT": 0}, "tle": {"line1": "1 64876U 25155A   25351.28842561  .00000063  00000+0  48237-4 0  9997", "line2": "2 64876  98.5789 313.0259 0002120  52.6561 307.4810 14.21442188 20563"}}, "geometry": {"type": "Point", "coordinates": [174.66082944422547, 77.1105030643154]}}, {"type": "Feature", "properties": {"norad_id": 64877, "name": "IONOSFERA-M 4", "group": "resource", "lat": -76.65436315044886, "lon": -7.177391212242617, "alt_km": 828.5858566949682, "timestamp": "2025-12-17T15:50:09.434925+00:00", "meta": {"OBJECT_NAME": "IONOSFERA-M 4", "OBJECT_ID": "2025-155B", "EPOCH": "2025-12-17T07:45:49.381344", "MEAN_MOTION": 14.21443357, "ECCENTRICITY": 0.00014998, "INCLINATION": 98.5786, "RA_OF_ASC_NODE": 312.9794, "ARG_OF_PERICENTER": 58.9981, "MEAN_ANOMALY": 301.1344, "EPHEMERIS_TYPE": 0, "CLASSIFICATION_TYPE": "U", "NORAD_CAT_ID": 64877, "ELEMENT_SET_NO": 999, "REV_AT_EPOCH": 2056, "BSTAR": 4.7282794e-05, "MEAN_MOTION_DOT": 6.1e-07, "MEAN_MOTION_DDOT": 0}, "tle": {"line1": "1 64877U 25155B   25351.32348821  .00000061  00000+0  47283-4 0  9991", "line2": "2 64877  98.5786 312.9794 0001499  58.9981 301.1344 14.21443357 20568"}}, "geometry": {"type": "Point", "coordinates": [-7.177391212242617, -76.65436315044886]}}, {"type": "Feature", "properties": {"norad_id": 64899, "name": "MICROCARB", "group": "resource", "lat": -68.70110109532278, "lon": -134.2248725797583, "alt_km": 667.9269750932408, "timestamp": "2025-12-17T15:50:09.434935+00:00", "meta": {"OBJECT_NAME": "MICROCARB", "OBJECT_ID": "2025-156A", "EPOCH": "2025-12-17T04:54:58.705632", "MEAN_MOTION": 14.72064534, "ECCENTRICITY": 0.00174014, "INCLINATION": 98.0022, "RA_OF_ASC_NODE": 66.4787, "ARG_OF_PERICENTER": 131.2144, "MEAN_ANOMALY": 229.0567, "EPHEMERIS_TYPE": 0, "CLASSIFICATION_TYPE": "U", "NORAD_CAT_ID": 64899, "ELEMENT_SET_NO": 999, "REV_AT_EPOCH": 2119, "BSTAR": 0.00010769275, "MEAN_MOTION_DOT": 6.29e-06, "MEAN_MOTION_DDOT": 0}, "tle": {"line1": "1 64899U 25156A   25351.20484613  .00000629  00000+0  10769-3 0  9991", "line2": "2 64899  98.0022  66.4787 0017401 131.2144 229.0567 14.72064534 21196"}}, "geometry": {"type": "Point", "coordinates": [-134.2248725797583, -68.70110109532278]}}, {"type": "Feature", "properties": {"norad_id": 64900, "name": "CO3D 3", "group": "resource", "lat": 61.8927914093711, "lon": 53.805354549294584, "alt_km": 498.2463647314262, "timestamp": "2025-12-17T15:50:09.434946+00:00", "meta": {"OBJECT_NAME": "CO3D 3", "OBJECT_ID": "2025-156B", "EPOCH": "2025-12-13T16:46:35.865408", "MEAN_MOTION": 15.2020033, "ECCENTRICITY": 0.00013843, "INCLINATION": 97.4344, "RA_OF_ASC_NODE": 64.0523, "ARG_OF_PERICENTER": 93.9049, "MEAN_ANOMALY": 266.2345, "EPHEMERIS_TYPE": 0, "CLASSIFICATION_TYPE": "U", "NORAD_CAT_ID": 64900, "ELEMENT_SET_NO": 999, "REV_AT_EPOCH": 2135, "BSTAR": 0.00015817929, "MEAN_MOTION_DOT": 3.358e-05, "MEAN_MOTION_DDOT": 0}, "tle": {"line1": "1 64900U 25156B   25347.69902622  .00003358  00000+0  15818-3 0  9999", "line2": "2 64900  97.4344  64.0523 0001384  93.9049 266.2345 15.20200330 21357"}}, "geometry": {"type": "Point", "coordinates": [53.805354549294584, 61.8927914093711]}}, {"type": "Feature", "properties": {"norad_id": 64901, "name": "CO3D 4", "group": "resource", "lat": 60.81587330158929, "lon": 54.43580361648838, "alt_km": 499.6856531295125, "timestamp": "2025-12-17T15:50:09.434956+00:00", "meta": {"OBJECT_NAME": "CO3D 4", "OBJECT_ID": "2025-156C", "EPOCH": "2025-12-17T07:40:00.410880", "MEAN_MOTION": 15.20208936, "ECCENTRICITY": 0.00011162, "INCLINATION": 97.4346, "RA_OF_ASC_NODE": 67.6213, "ARG_OF_PERICENTER": 181.0479, "MEAN_ANOMALY": 179.0754, "EPHEMERIS_TYPE": 0, "CLASSIFICATION_TYPE": "U", "NORAD_CAT_ID": 64901, "ELEMENT_SET_NO": 999, "REV_AT_EPOCH": 2190, "BSTAR": 0.00023046211, "MEAN_MOTION_DOT": 4.926e-05, "MEAN_MOTION_DDOT": 0}, "tle": {"line1": "1 64901U 25156C   25351.31944920  .00004926  00000+0  23046-3 0  9995", "line2": "2 64901  97.4346  67.6213 0001116 181.0479 179.0754 15.20208936 21900"}}, "geometry": {"type": "Point", "coordinates": [54.43580361648838, 60.81587330158929]}}]}